CCSDS_OMM_VERS = 2.0
CREATION_DATE  = 
ORIGINATOR     = 

OBJECT_NAME    = IDEFIX & ARIANE 42P R/B
OBJECT_ID      = 2002-021B
CENTER_NAME    = EARTH
REF_FRAME      = TEME
TIME_SYSTEM    = UTC
MEAN_ELEMENT_THEORY = SGP/SGP4

EPOCH          = 2026-02-22T02:43:18.204096
MEAN_MOTION    = 14.31013818
ECCENTRICITY   = .0010787
INCLINATION    = 98.5855
RA_OF_ASC_NODE = 351.9075
ARG_OF_PERICENTER = 230.6855
MEAN_ANOMALY   = 129.3372

EPHEMERIS_TYPE = 0
CLASSIFICATION_TYPE = U
NORAD_CAT_ID   = 27422
ELEMENT_SET_NO = 999
REV_AT_EPOCH   = 24179
BSTAR          = .10883E-3
MEAN_MOTION_DOT = .243E-5
MEAN_MOTION_DDOT = 0

CCSDS_OMM_VERS = 2.0
CREATION_DATE  = 
ORIGINATOR     = 

OBJECT_NAME    = AQUA
OBJECT_ID      = 2002-022A
CENTER_NAME    = EARTH
REF_FRAME      = TEME
TIME_SYSTEM    = UTC
MEAN_ELEMENT_THEORY = SGP/SGP4

EPOCH          = 2026-02-22T05:10:45.082848
MEAN_MOTION    = 14.61934284
ECCENTRICITY   = .0001009
INCLINATION    = 98.4147
RA_OF_ASC_NODE = 20.3025
ARG_OF_PERICENTER = 47.4655
MEAN_ANOMALY   = 9.0716

EPHEMERIS_TYPE = 0
CLASSIFICATION_TYPE = U
NORAD_CAT_ID   = 27424
ELEMENT_SET_NO = 999
REV_AT_EPOCH   = 26647
BSTAR          = .18702E-3
MEAN_MOTION_DOT = .887E-5
MEAN_MOTION_DDOT = 0

CCSDS_OMM_VERS = 2.0
CREATION_DATE  = 
ORIGINATOR     = 

OBJECT_NAME    = CZ-4B R/B
OBJECT_ID      = 2002-024C
CENTER_NAME    = EARTH
REF_FRAME      = TEME
TIME_SYSTEM    = UTC
MEAN_ELEMENT_THEORY = SGP/SGP4

EPOCH          = 2026-02-22T01:56:21.096672
MEAN_MOTION    = 14.14544588
ECCENTRICITY   = .0051029
INCLINATION    = 98.8877
RA_OF_ASC_NODE = 106.5634
ARG_OF_PERICENTER = 67.9791
MEAN_ANOMALY   = 322.1979

EPHEMERIS_TYPE = 0
CLASSIFICATION_TYPE = U
NORAD_CAT_ID   = 27432
ELEMENT_SET_NO = 999
REV_AT_EPOCH   = 22703
BSTAR          = .27667E-4
MEAN_MOTION_DOT = .1E-6
MEAN_MOTION_DDOT = 0

CCSDS_OMM_VERS = 2.0
CREATION_DATE  = 
ORIGINATOR     = 

OBJECT_NAME    = MIDORI II (ADEOS-II)
OBJECT_ID      = 2002-056A
CENTER_NAME    = EARTH
REF_FRAME      = TEME
TIME_SYSTEM    = UTC
MEAN_ELEMENT_THEORY = SGP/SGP4

EPOCH          = 2026-02-22T02:56:29.845824
MEAN_MOTION    = 14.29272110
ECCENTRICITY   = .0002045
INCLINATION    = 98.7742
RA_OF_ASC_NODE = 11.4955
ARG_OF_PERICENTER = 64.8328
MEAN_ANOMALY   = 295.3065

EPHEMERIS_TYPE = 0
CLASSIFICATION_TYPE = U
NORAD_CAT_ID   = 27597
ELEMENT_SET_NO = 999
REV_AT_EPOCH   = 20807
BSTAR          = .10947E-3
MEAN_MOTION_DOT = .233E-5
MEAN_MOTION_DDOT = 0

CCSDS_OMM_VERS = 2.0
CREATION_DATE  = 
ORIGINATOR     = 

OBJECT_NAME    = H-2A R/B
OBJECT_ID      = 2002-056E
CENTER_NAME    = EARTH
REF_FRAME      = TEME
TIME_SYSTEM    = UTC
MEAN_ELEMENT_THEORY = SGP/SGP4

EPOCH          = 2026-02-22T03:18:21.148128
MEAN_MOTION    = 14.33748990
ECCENTRICITY   = .0069542
INCLINATION    = 98.3175
RA_OF_ASC_NODE = 14.0982
ARG_OF_PERICENTER = 207.1183
MEAN_ANOMALY   = 177.7044

EPHEMERIS_TYPE = 0
CLASSIFICATION_TYPE = U
NORAD_CAT_ID   = 27601
ELEMENT_SET_NO = 999
REV_AT_EPOCH   = 21188
BSTAR          = .99926E-4
MEAN_MOTION_DOT = .243E-5
MEAN_MOTION_DDOT = 0

CCSDS_OMM_VERS = 2.0
CREATION_DATE  = 
ORIGINATOR     = 

OBJECT_NAME    = CZ-4B R/B
OBJECT_ID      = 2003-049C
CENTER_NAME    = EARTH
REF_FRAME      = TEME
TIME_SYSTEM    = UTC
MEAN_ELEMENT_THEORY = SGP/SGP4

EPOCH          = 2026-02-21T21:51:23.414688
MEAN_MOTION    = 14.55002214
ECCENTRICITY   = .0047025
INCLINATION    = 98.6864
RA_OF_ASC_NODE = 47.1986
ARG_OF_PERICENTER = 280.2505
MEAN_ANOMALY   = 79.3390

EPHEMERIS_TYPE = 0
CLASSIFICATION_TYPE = U
NORAD_CAT_ID   = 28059
ELEMENT_SET_NO = 999
REV_AT_EPOCH   = 18430
BSTAR          = .95421E-4
MEAN_MOTION_DOT = .365E-5
MEAN_MOTION_DDOT = 0

CCSDS_OMM_VERS = 2.0
CREATION_DATE  = 
ORIGINATOR     = 

OBJECT_NAME    = CZ-2C R/B
OBJECT_ID      = 2004-012C
CENTER_NAME    = EARTH
REF_FRAME      = TEME
TIME_SYSTEM    = UTC
MEAN_ELEMENT_THEORY = SGP/SGP4

EPOCH          = 2026-02-22T02:53:57.996096
MEAN_MOTION    = 15.62569256
ECCENTRICITY   = .0014366
INCLINATION    = 97.7267
RA_OF_ASC_NODE = 116.9594
ARG_OF_PERICENTER = 11.4198
MEAN_ANOMALY   = 348.7382

EPHEMERIS_TYPE = 0
CLASSIFICATION_TYPE = U
NORAD_CAT_ID   = 28222
ELEMENT_SET_NO = 999
REV_AT_EPOCH   = 20184
BSTAR          = .51228E-3
MEAN_MOTION_DOT = .45955E-3
MEAN_MOTION_DDOT = 0

CCSDS_OMM_VERS = 2.0
CREATION_DATE  = 
ORIGINATOR     = 

OBJECT_NAME    = SL-16 R/B
OBJECT_ID      = 2004-021B
CENTER_NAME    = EARTH
REF_FRAME      = TEME
TIME_SYSTEM    = UTC
MEAN_ELEMENT_THEORY = SGP/SGP4

EPOCH          = 2026-02-22T01:00:02.396160
MEAN_MOTION    = 14.14597947
ECCENTRICITY   = .0003305
INCLINATION    = 70.9989
RA_OF_ASC_NODE = 265.3333
ARG_OF_PERICENTER = 45.6678
MEAN_ANOMALY   = 314.4715

EPHEMERIS_TYPE = 0
CLASSIFICATION_TYPE = U
NORAD_CAT_ID   = 28353
ELEMENT_SET_NO = 999
REV_AT_EPOCH   = 12062
BSTAR          = .12983E-3
MEAN_MOTION_DOT = .202E-5
MEAN_MOTION_DDOT = 0

CCSDS_OMM_VERS = 2.0
CREATION_DATE  = 
ORIGINATOR     = 

OBJECT_NAME    = CZ-4B R/B
OBJECT_ID      = 2004-035C
CENTER_NAME    = EARTH
REF_FRAME      = TEME
TIME_SYSTEM    = UTC
MEAN_ELEMENT_THEORY = SGP/SGP4

EPOCH          = 2026-02-22T01:41:51.410688
MEAN_MOTION    = 15.28746449
ECCENTRICITY   = .003301
INCLINATION    = 97.3522
RA_OF_ASC_NODE = 87.5020
ARG_OF_PERICENTER = 27.1977
MEAN_ANOMALY   = 333.0983

EPHEMERIS_TYPE = 0
CLASSIFICATION_TYPE = U
NORAD_CAT_ID   = 28415
ELEMENT_SET_NO = 999
REV_AT_EPOCH   = 17752
BSTAR          = .24969E-3
MEAN_MOTION_DOT = .7015E-4
MEAN_MOTION_DDOT = 0

CCSDS_OMM_VERS = 2.0
CREATION_DATE  = 
ORIGINATOR     = 

OBJECT_NAME    = CZ-2C R/B
OBJECT_ID      = 2004-046B
CENTER_NAME    = EARTH
REF_FRAME      = TEME
TIME_SYSTEM    = UTC
MEAN_ELEMENT_THEORY = SGP/SGP4

EPOCH          = 2026-02-21T23:44:31.492032
MEAN_MOTION    = 14.26986185
ECCENTRICITY   = .0138924
INCLINATION    = 98.1991
RA_OF_ASC_NODE = 328.9491
ARG_OF_PERICENTER = 200.8650
MEAN_ANOMALY   = 158.6828

EPHEMERIS_TYPE = 0
CLASSIFICATION_TYPE = U
NORAD_CAT_ID   = 28480
ELEMENT_SET_NO = 999
REV_AT_EPOCH   = 10626
BSTAR          = .54337E-4
MEAN_MOTION_DOT = .105E-5
MEAN_MOTION_DDOT = 0

CCSDS_OMM_VERS = 2.0
CREATION_DATE  = 
ORIGINATOR     = 

OBJECT_NAME    = ARIANE 5 R/B
OBJECT_ID      = 2004-049H
CENTER_NAME    = EARTH
REF_FRAME      = TEME
TIME_SYSTEM    = UTC
MEAN_ELEMENT_THEORY = SGP/SGP4

EPOCH          = 2026-02-22T01:41:25.388736
MEAN_MOTION    = 14.85232743
ECCENTRICITY   = .0084994
INCLINATION    = 98.2600
RA_OF_ASC_NODE = 220.9456
ARG_OF_PERICENTER = 42.3719
MEAN_ANOMALY   = 318.4017

EPHEMERIS_TYPE = 0
CLASSIFICATION_TYPE = U
NORAD_CAT_ID   = 28499
ELEMENT_SET_NO = 999
REV_AT_EPOCH   = 14347
BSTAR          = .80932E-4
MEAN_MOTION_DOT = .676E-5
MEAN_MOTION_DDOT = 0

CCSDS_OMM_VERS = 2.0
CREATION_DATE  = 
ORIGINATOR     = 

OBJECT_NAME    = CZ-2D R/B
OBJECT_ID      = 2005-024B
CENTER_NAME    = EARTH
REF_FRAME      = TEME
TIME_SYSTEM    = UTC
MEAN_ELEMENT_THEORY = SGP/SGP4

EPOCH          = 2026-02-21T14:27:09.813888
MEAN_MOTION    = 15.58610867
ECCENTRICITY   = .0007531
INCLINATION    = 97.3614
RA_OF_ASC_NODE = 67.1773
ARG_OF_PERICENTER = 85.1202
MEAN_ANOMALY   = 275.0914

EPHEMERIS_TYPE = 0
CLASSIFICATION_TYPE = U
NORAD_CAT_ID   = 28738
ELEMENT_SET_NO = 999
REV_AT_EPOCH   = 13727
BSTAR          = .46736E-3
MEAN_MOTION_DOT = .35856E-3
MEAN_MOTION_DDOT = 0

