IDEFIX & ARIANE 42P R/B 
1 27422U 02021B   26053.11340514  .00000243  00000+0  10883-3 0  9998
2 27422  98.5855 351.9075 0010787 230.6855 129.3372 14.31013818241791
AQUA                    
1 27424U 02022A   26053.21579957  .00000887  00000+0  18702-3 0  9999
2 27424  98.4147  20.3025 0001009  47.4655   9.0716 14.61934284266477
CZ-4B R/B               
1 27432U 02024C   26053.08079973  .00000010  00000+0  27667-4 0  9997
2 27432  98.8877 106.5634 0051029  67.9791 322.1979 14.14544588227039
MIDORI II (ADEOS-II)    
1 27597U 02056A   26053.12256766  .00000233  00000+0  10947-3 0  9995
2 27597  98.7742  11.4955 0002045  64.8328 295.3065 14.29272110208072
H-2A R/B                
1 27601U 02056E   26053.13774477  .00000243  00000+0  99926-4 0  9992
2 27601  98.3175  14.0982 0069542 207.1183 177.7044 14.33748990211881
CZ-4B R/B               
1 28059U 03049C   26052.91068767  .00000365  00000+0  95421-4 0  9997
2 28059  98.6864  47.1986 0047025 280.2505  79.3390 14.55002214184303
CZ-2C R/B               
1 28222U 04012C   26053.12081014  .00045955  00000+0  51228-3 0  9994
2 28222  97.7267 116.9594 0014366  11.4198 348.7382 15.62569256201842
SL-16 R/B               
1 28353U 04021B   26053.04169440  .00000202  00000+0  12983-3 0  9991
2 28353  70.9989 265.3333 0003305  45.6678 314.4715 14.14597947120624
CZ-4B R/B               
1 28415U 04035C   26053.07073392  .00007015  00000+0  24969-3 0  9994
2 28415  97.3522  87.5020 0033010  27.1977 333.0983 15.28746449177523
CZ-2C R/B               
1 28480U 04046B   26052.98925338  .00000105  00000+0  54337-4 0  9999
2 28480  98.1991 328.9491 0138924 200.8650 158.6828 14.26986185106268
ARIANE 5 R/B            
1 28499U 04049H   26053.07043274  .00000676  00000+0  80932-4 0  9996
2 28499  98.2600 220.9456 0084994  42.3719 318.4017 14.85232743143479
CZ-2D R/B               
1 28738U 05024B   26052.60219692  .00035856  00000+0  46736-3 0  9994
2 28738  97.3614  67.1773 0007531  85.1202 275.0914 15.58610867137270
